ONEWEB-0328             
1 49197U 21083M   25166.88336191 -.00000409  00000+0 -11537-2 0  9996
2 49197  87.8960  32.9952 0001883  79.5856 280.5485 13.13468798182812
ONEWEB-0331             
1 49198U 21083N   25166.89258480  .00000061  00000+0  12117-3 0  9990
2 49198  87.9139  48.2417 0001856  68.1409 291.9921 13.18685985181731
ONEWEB-0333             
1 49199U 21083P   25167.33535206 -.00000164  00000+0 -48359-3 0  9998
2 49199  87.8973  32.9714 0001789  84.7917 275.3416 13.13470323184179
ONEWEB-0334             
1 49200U 21083Q   25167.23723383  .00000028  00000+0  36954-4 0  9991
2 49200  87.9254 347.3578 0002268 117.7765 242.3599 13.20771152189776
ONEWEB-0335             
1 49201U 21083R   25167.02556208 -.00000235  00000+0 -67958-3 0  9998
2 49201  87.8974  33.0216 0001707  76.5902 283.5417 13.13469102184148
ONEWEB-0336             
1 49202U 21083S   25167.07296591  .00000307  00000+0  80523-3 0  9991
2 49202  87.8971  33.0048 0001701  84.4554 275.6769 13.13469626184158
ONEWEB-0337             
1 49203U 21083T   25166.85445287  .00000372  00000+0  98332-3 0  9994
2 49203  87.8974  33.0479 0001935  78.4996 281.6350 13.13468616182825
ONEWEB-0338             
1 49204U 21083U   25167.43926160  .00000121  00000+0  26596-3 0  9999
2 49204  87.9261 347.3080 0002022 100.2629 259.8732 13.20771775189830
ONEWEB-0339             
1 49205U 21083V   25167.16775927  .00000536  00000+0  14329-2 0  9993
2 49205  87.8969  32.9729 0001933  84.0420 276.0929 13.13472340184146
ONEWEB-0340             
1 49206U 21083W   25166.65072876  .00000016  00000+0  80893-5 0  9995
2 49206  87.9143  48.2901 0001834  77.8224 282.3114 13.18687053181660
ONEWEB-0341             
1 49207U 21083X   25166.58275502  .00000010  00000+0 -86466-5 0  9996
2 49207  87.9147  48.3143 0002422  76.0116 284.1286 13.18687272181673
ONEWEB-0342             
1 49208U 21083Y   25166.76375772  .00000086  00000+0  18010-3 0  9997
2 49208  87.9250 347.4210 0001914  94.6558 265.4794 13.20772694188419
ONEWEB-0343             
1 49209U 21083Z   25166.65389657 -.00000040  00000+0 -13388-3 0  9998
2 49209  87.9147  48.2869 0002467  83.0436 277.0977 13.18684007181739
ONEWEB-0344             
1 49210U 21083AA  25167.31503984  .00000061  00000+0  13149-3 0  9991
2 49210  87.8973  32.9828 0002182  74.8640 285.2730 13.13469053184166
ONEWEB-0345             
1 49211U 21083AB  25167.07804664  .00000320  00000+0  84072-3 0  9995
2 49211  87.8969  32.9825 0002212  74.8415 285.2959 13.13468982184144
ONEWEB-0346             
1 49212U 21083AC  25166.43574121  .00000054  00000+0  10426-3 0  9993
2 49212  87.9146  48.3524 0001459  62.3839 297.7441 13.18685235181647
ONEWEB-0348             
1 49213U 21083AD  25166.52702151  .00000086  00000+0  18018-3 0  9990
2 49213  87.9259 347.4747 0001930  70.6914 289.4428 13.20772113188413
ONEWEB-0350             
1 49214U 21083AE  25167.39206904  .00000301  00000+0  78826-3 0  9995
2 49214  87.8969  32.9116 0002052  75.5680 284.5677 13.13469980184210
ONEWEB-0351             
1 49215U 21083AF  25167.20237394  .00000096  00000+0  20302-3 0  9990
2 49215  87.9256 347.3236 0002523 103.0609 257.0806 13.20770372189771
ONEWEB-0352             
1 49216U 21083AG  25167.06788096 -.00000030  00000+0 -11587-3 0  9990
2 49216  87.8970  33.0166 0002168  93.0243 267.1134 13.13470318184266
ONEWEB-0354             
1 49217U 21083AH  25167.45503934  .00000149  00000+0  33557-3 0  9990
2 49217  87.9260 347.2715 0001989  83.2016 276.9344 13.20772036189849
ONEWEB-0355             
1 49218U 21083AJ  25167.32533073 -.00000137  00000+0 -40939-3 0  9995
2 49218  87.8971  32.9639 0002052  83.1179 277.0184 13.13469200184175
ONEWEB-0357             
1 49219U 21083AK  25167.45188276  .00000079  00000+0  16313-3 0  9993
2 49219  87.9255 347.2783 0002018  92.2971 267.8393 13.20772173189838
ONEWEB-0332             
1 49279U 21090A   25167.24431500 -.00000007  00000+0 -53886-4 0  9995
2 49279  87.9033   2.5250 0001852  96.5955 263.5385 13.14501170179509
ONEWEB-0347             
1 49280U 21090B   25167.21515159  .00000098  00000+0  20955-3 0  9995
2 49280  87.9259 347.3334 0001662 102.1085 258.0235 13.20772786182733
ONEWEB-0349             
1 49281U 21090C   25167.24670934  .00000039  00000+0  63064-4 0  9996
2 49281  87.9261 347.3330 0001947  91.2581 268.8775 13.20771889182818
ONEWEB-0353             
1 49282U 21090D   25167.23638846  .00000116  00000+0  27928-3 0  9996
2 49282  87.9034   2.5132 0001779  96.7291 263.4041 13.14501384180794
ONEWEB-0356             
1 49283U 21090E   25166.56331344  .00000032  00000+0  47147-4 0  9998
2 49283  87.9258 347.4601 0001036  74.0846 286.0401 13.20772940181434
ONEWEB-0358             
1 49284U 21090F   25166.59330332  .00000134  00000+0  29801-3 0  9997
2 49284  87.9260 347.4443 0001802  86.0924 274.0415 13.20771814182165
ONEWEB-0359             
1 49285U 21090G   25166.51438351  .00000102  00000+0  21894-3 0  9999
2 49285  87.9259 347.4723 0001995  80.0343 280.1015 13.20770075182136
ONEWEB-0360             
1 49286U 21090H   25166.73219165  .00000080  00000+0  16585-3 0  9990
2 49286  87.9261 347.4349 0001915  86.6028 273.5324 13.20772153181472
ONEWEB-0361             
1 49287U 21090J   25166.56173958  .00000090  00000+0  18948-3 0  9997
2 49287  87.9258 347.4639 0001693  89.3146 270.8181 13.20771877181906
ONEWEB-0362             
1 49288U 21090K   25167.28538205  .00000075  00000+0  15582-3 0  9992
2 49288  87.9220  17.7305 0002030  87.3189 272.8176 13.19724957179474
ONEWEB-0363             
1 49289U 21090L   25166.72903434  .00000021  00000+0  19936-4 0  9990
2 49289  87.9260 347.4259 0001488  82.6258 277.5044 13.20772558181933
ONEWEB-0364             
1 49290U 21090M   25167.22145304  .00000024  00000+0  26561-4 0  9997
2 49290  87.9259 347.3578 0001699  91.5786 268.5542 13.20772613183954
ONEWEB-0365             
1 49291U 21090N   25167.06740816  .00000048  00000+0  86969-4 0  9993
2 49291  87.9213  17.7302 0001862  89.5297 270.6049 13.19726609179429
ONEWEB-0366             
1 49292U 21090P   25166.47203929  .00000093  00000+0  21669-3 0  9992
2 49292  87.9035   2.6777 0001794  86.9430 273.1905 13.14500765179387
ONEWEB-0367             
1 49293U 21090Q   25167.25775671  .00000048  00000+0  85698-4 0  9991
2 49293  87.9260 347.3160 0002041  94.0341 266.1026 13.20772586182828
ONEWEB-0368             
1 49294U 21090R   25167.45819918  .00000046  00000+0  82458-4 0  9996
2 49294  87.9260 347.3092 0001311 116.3788 243.7480 13.20771790184008
ONEWEB-0369             
1 49295U 21090S   25167.29011546  .00000058  00000+0  11153-3 0  9996
2 49295  87.9221  17.7141 0001825  88.9742 271.1600 13.19727263179448
ONEWEB-0370             
1 49296U 21090T   25166.88843939 -.00000136  00000+0 -36535-3 0  9990
2 49296  87.9264 347.3952 0002125  87.8728 272.2648 13.20772138182816
ONEWEB-0371             
1 49297U 21090U   25167.29801424  .00000123  00000+0  27483-3 0  9996
2 49297  87.9220  17.7020 0001902  87.8735 272.2615 13.19726627179486
ONEWEB-0372             
1 49298U 21090V   25167.25603236  .00000021  00000+0  19571-4 0  9991
2 49298  87.9260 347.3311 0001829  95.1276 265.0067 13.20773176182833
ONEWEB-0373             
1 49299U 21090W   25167.43452236  .00000081  00000+0  16647-3 0  9990
2 49299  87.9259 347.3066 0001619  90.6004 269.5314 13.20772235184049
ONEWEB-0374             
1 49300U 21090X   25167.29664493  .00000065  00000+0  14159-3 0  9995
2 49300  87.9031   2.4940 0001245  87.1508 272.9764 13.14502088180789
ONEWEB-0375             
1 49301U 21090Y   25167.19462500  .00000060  00000+0  11490-3 0  9990
2 49301  87.9260 347.3322 0001439  73.7966 286.3326 13.20772553183502
ONEWEB-0376             
1 49302U 21090Z   25167.29644004  .00000122  00000+0  27225-3 0  9995
2 49302  87.9212  17.6870 0001877  93.6119 266.5229 13.19726879179473
ONEWEB-0377             
1 49303U 21090AA  25167.48359791 -.00000061  00000+0 -18205-3 0  9995
2 49303  87.9259 347.2677 0001967  83.3883 276.7474 13.20770851183523
ONEWEB-0378             
1 49304U 21090AB  25167.20263581  .00000045  00000+0  79961-4 0  9994
2 49304  87.9260 347.3309 0001700  89.1165 271.0163 13.20771036182798
ONEWEB-0379             
1 49305U 21090AC  25167.06354425  .00000290  00000+0  74834-3 0  9992
2 49305  87.9032   2.5450 0001711  90.0406 270.0920 13.14502344180766
ONEWEB-0380             
1 49306U 21090AD  25167.06582505  .00000098  00000+0  21201-3 0  9991
2 49306  87.9220  17.7607 0001799  79.8196 280.3139 13.19724022179415
ONEWEB-0381             
1 49307U 21090AE  25166.57122048 -.00000017  00000+0 -72581-4 0  9990
2 49307  87.9261 347.4574 0001678  83.3692 276.7632 13.20771936181434
ONEWEB-0382             
1 49308U 21090AF  25167.46766488  .00000016  00000+0  80930-5 0  9997
2 49308  87.9259 347.2731 0001487  87.2377 272.8927 13.20772120182853
ONEWEB-0383             
1 49309U 21090AG  25167.28554709  .00000129  00000+0  31381-3 0  9998
2 49309  87.9029   2.4810 0001638  92.2234 267.9083 13.14504324180817
ONEWEB-0384             
1 49310U 21090AH  25167.23649132  .00000056  00000+0  10613-3 0  9994
2 49310  87.9261 347.3359 0001323  90.1062 270.0223 13.20784914182830
ONEWEB-0385             
1 49311U 21090AJ  25166.55070416  .00000068  00000+0  13478-3 0  9997
2 49311  87.9259 347.4732 0001710  89.9287 270.2042 13.20771570181406
ONEWEB-0386             
1 49312U 21090AK  25167.47712302  .00001072  00000+0  26031-2 0  9991
2 49312  87.9255 347.2595 0001478  91.3121 268.8181 13.20780242182856
ONEWEB-0387             
1 49313U 21090AL  25167.23408018  .00000130  00000+0  28842-3 0  9999
2 49313  87.9244 347.3701 0001724  80.0981 280.0347 13.20772516182820
ONEWEB-0388             
1 49314U 21090AM  25167.06108870  .00000043  00000+0  76221-4 0  9992
2 49314  87.9220  17.7667 0001708  85.1953 274.9374 13.19724401179412
